[{"OBJECT_NAME":"HAWK-6B","OBJECT_ID":"2023-011A","EPOCH":"2026-03-09T09:51:17.950752","MEAN_MOTION":15.21905453,"ECCENTRICITY":0.00019203,"INCLINATION":40.5121,"RA_OF_ASC_NODE":213.6048,"ARG_OF_PERICENTER":18.2889,"MEAN_ANOMALY":341.7989,"EPHEMERIS_TYPE":0,"CLASSIFICATION_TYPE":"U","NORAD_CAT_ID":55324,"ELEMENT_SET_NO":999,"REV_AT_EPOCH":17263,"BSTAR":0.00033476386,"MEAN_MOTION_DOT":7.596e-5,"MEAN_MOTION_DDOT":0},{"OBJECT_NAME":"TIANYI E","OBJECT_ID":"2025-103E","EPOCH":"2026-03-09T23:53:00.366432","MEAN_MOTION":15.21814724,"ECCENTRICITY":0.00039842,"INCLINATION":97.3824,"RA_OF_ASC_NODE":143.2002,"ARG_OF_PERICENTER":141.8927,"MEAN_ANOMALY":218.2592,"EPHEMERIS_TYPE":0,"CLASSIFICATION_TYPE":"U","NORAD_CAT_ID":64052,"ELEMENT_SET_NO":999,"REV_AT_EPOCH":4501,"BSTAR":0.00058098281,"MEAN_MOTION_DOT":0.0001314,"MEAN_MOTION_DDOT":0}]
